[
    {
        "Altitude(m)": 570972.8715989352,
        "Argument of Periapsis(deg)": -0.015068773855314936,
        "Eccentricity": 0.0,
        "Inclination(deg)": 97.0,
        "Latitude(deg)": 48.2003478147831,
        "Longitude(deg)": 40.597033755268164,
        "Mean Anomaly(deg)": 48.59569551279165,
        "RAAN(deg)": 150.00396470241236,
        "Satellite Name": "Starlink Shell 3 1878",
        "Satellite Number": 1878,
        "Semi-Major Axis(m)": 6938478.169268562,
        "Time(s)": 380
    },
    {
        "Altitude(m)": 571113.7286583711,
        "Argument of Periapsis(deg)": -0.015465320535717962,
        "Eccentricity": 0.0,
        "Inclination(deg)": 97.0,
        "Latitude(deg)": 48.815338260923774,
        "Longitude(deg)": 40.38259647938363,
        "Mean Anomaly(deg)": 49.2211717104967,
        "RAAN(deg)": 150.00406903668636,
        "Satellite Name": "Starlink Shell 3 1878",
        "Satellite Number": 1878,
        "Semi-Major Axis(m)": 6938478.169268562,
        "Time(s)": 390
    },
    {
        "Altitude(m)": 571254.6204320088,
        "Argument of Periapsis(deg)": -0.015861867216120987,
        "Eccentricity": 0.0,
        "Inclination(deg)": 97.0,
        "Latitude(deg)": 49.42998990693641,
        "Longitude(deg)": 40.163890101989004,
        "Mean Anomaly(deg)": 49.846647908201746,
        "RAAN(deg)": 150.0041733709604,
        "Satellite Name": "Starlink Shell 3 1878",
        "Satellite Number": 1878,
        "Semi-Major Axis(m)": 6938478.169268562,
        "Time(s)": 400
    },
    {
        "Altitude(m)": 571395.4609644634,
        "Argument of Periapsis(deg)": -0.01625841389652401,
        "Eccentricity": 0.0,
        "Inclination(deg)": 97.0,
        "Latitude(deg)": 50.04429045887529,
        "Longitude(deg)": 39.94071441090042,
        "Mean Anomaly(deg)": 50.472124105906786,
        "RAAN(deg)": 150.0042777052344,
        "Satellite Name": "Starlink Shell 3 1878",
        "Satellite Number": 1878,
        "Semi-Major Axis(m)": 6938478.169268562,
        "Time(s)": 410
    },
    {
        "Altitude(m)": 571536.1645935542,
        "Argument of Periapsis(deg)": -0.016654960576927034,
        "Eccentricity": 0.0,
        "Inclination(deg)": 97.0,
        "Latitude(deg)": 50.658226898862175,
        "Longitude(deg)": 39.712856602841605,
        "Mean Anomaly(deg)": 51.097600303611834,
        "RAAN(deg)": 150.00438203950839,
        "Satellite Name": "Starlink Shell 3 1878",
        "Satellite Number": 1878,
        "Semi-Major Axis(m)": 6938478.169268562,
        "Time(s)": 420
    },
    {
        "Altitude(m)": 571676.6459931163,
        "Argument of Periapsis(deg)": -0.01705150725733006,
        "Eccentricity": 0.0,
        "Inclination(deg)": 97.0,
        "Latitude(deg)": 51.27178542537783,
        "Longitude(deg)": 39.48009086098885,
        "Mean Anomaly(deg)": 51.72307650131686,
        "RAAN(deg)": 150.00448637378238,
        "Satellite Name": "Starlink Shell 3 1878",
        "Satellite Number": 1878,
        "Semi-Major Axis(m)": 6938478.169268562,
        "Time(s)": 430
    },
    {
        "Altitude(m)": 571816.8202155211,
        "Argument of Periapsis(deg)": -0.017448053937733084,
        "Eccentricity": 0.0,
        "Inclination(deg)": 97.0,
        "Latitude(deg)": 51.88495138794859,
        "Longitude(deg)": 39.24217784736724,
        "Mean Anomaly(deg)": 52.34855269902192,
        "RAAN(deg)": 150.0045907080564,
        "Satellite Name": "Starlink Shell 3 1878",
        "Satellite Number": 1878,
        "Semi-Major Axis(m)": 6938478.169268562,
        "Time(s)": 440
    },
    {
        "Altitude(m)": 571956.6027339805,
        "Argument of Periapsis(deg)": -0.017844600618136107,
        "Eccentricity": 0.0,
        "Inclination(deg)": 97.0,
        "Latitude(deg)": 52.49770921560781,
        "Longitude(deg)": 38.99886258808222,
        "Mean Anomaly(deg)": 52.97402889672694,
        "RAAN(deg)": 150.0046950423304,
        "Satellite Name": "Starlink Shell 3 1878",
        "Satellite Number": 1878,
        "Semi-Major Axis(m)": 6938478.169268562,
        "Time(s)": 450
    },
    {
        "Altitude(m)": 572095.9094845306,
        "Argument of Periapsis(deg)": -0.018241147298539134,
        "Eccentricity": 0.0,
        "Inclination(deg)": 97.0,
        "Latitude(deg)": 53.11004233844452,
        "Longitude(deg)": 38.74987376687101,
        "Mean Anomaly(deg)": 53.59950509443202,
        "RAAN(deg)": 150.0047993766044,
        "Satellite Name": "Starlink Shell 3 1878",
        "Satellite Number": 1878,
        "Semi-Major Axis(m)": 6938478.169268562,
        "Time(s)": 460
    },
    {
        "Altitude(m)": 572234.6569077392,
        "Argument of Periapsis(deg)": -0.018637693978942157,
        "Eccentricity": 0.0,
        "Inclination(deg)": 97.0,
        "Latitude(deg)": 53.72193310145147,
        "Longitude(deg)": 38.49492290256351,
        "Mean Anomaly(deg)": 54.22498129213704,
        "RAAN(deg)": 150.0049037108784,
        "Satellite Name": "Starlink Shell 3 1878",
        "Satellite Number": 1878,
        "Semi-Major Axis(m)": 6938478.169268562,
        "Time(s)": 470
    },
    {
        "Altitude(m)": 572372.7619900844,
        "Argument of Periapsis(deg)": -0.019034240659345183,
        "Eccentricity": 0.0,
        "Inclination(deg)": 97.0,
        "Latitude(deg)": 54.33336266978719,
        "Longitude(deg)": 38.233701884587504,
        "Mean Anomaly(deg)": 54.85045748984208,
        "RAAN(deg)": 150.00500804515244,
        "Satellite Name": "Starlink Shell 3 1878",
        "Satellite Number": 1878,
        "Semi-Major Axis(m)": 6938478.169268562,
        "Time(s)": 480
    },
    {
        "Altitude(m)": 572510.1423049611,
        "Argument of Periapsis(deg)": -0.019430787339748207,
        "Eccentricity": 0.0,
        "Inclination(deg)": 97.0,
        "Latitude(deg)": 54.944310924451614,
        "Longitude(deg)": 37.96588187762784,
        "Mean Anomaly(deg)": 55.475933687547126,
        "RAAN(deg)": 150.00511237942644,
        "Satellite Name": "Starlink Shell 3 1878",
        "Satellite Number": 1878,
        "Semi-Major Axis(m)": 6938478.169268562,
        "Time(s)": 490
    },
    {
        "Altitude(m)": 572646.7160533975,
        "Argument of Periapsis(deg)": -0.019827334020151237,
        "Eccentricity": 0.0,
        "Inclination(deg)": 97.0,
        "Latitude(deg)": 55.554756347237394,
        "Longitude(deg)": 37.69111206602838,
        "Mean Anomaly(deg)": 56.1014098852522,
        "RAAN(deg)": 150.00521671370046,
        "Satellite Name": "Starlink Shell 3 1878",
        "Satellite Number": 1878,
        "Semi-Major Axis(m)": 6938478.169268562,
        "Time(s)": 500
    },
    {
        "Altitude(m)": 572782.4021043202,
        "Argument of Periapsis(deg)": -0.020223880700554257,
        "Eccentricity": 0.0,
        "Inclination(deg)": 97.0,
        "Latitude(deg)": 56.164675893660295,
        "Longitude(deg)": 37.409016706368874,
        "Mean Anomaly(deg)": 56.7268860829572,
        "RAAN(deg)": 150.00532104797446,
        "Satellite Name": "Starlink Shell 3 1878",
        "Satellite Number": 1878,
        "Semi-Major Axis(m)": 6938478.169268562,
        "Time(s)": 510
    },
    {
        "Altitude(m)": 572917.1200344724,
        "Argument of Periapsis(deg)": -0.020620427380957283,
        "Eccentricity": 0.0,
        "Inclination(deg)": 97.0,
        "Latitude(deg)": 56.77404485240358,
        "Longitude(deg)": 37.11919349279028,
        "Mean Anomaly(deg)": 57.35236228066226,
        "RAAN(deg)": 150.0054253822485,
        "Satellite Name": "Starlink Shell 3 1878",
        "Satellite Number": 1878,
        "Semi-Major Axis(m)": 6938478.169268562,
        "Time(s)": 520
    },
    {
        "Altitude(m)": 573050.790167901,
        "Argument of Periapsis(deg)": -0.021016974061360306,
        "Eccentricity": 0.0,
        "Inclination(deg)": 97.0,
        "Latitude(deg)": 57.38283668959362,
        "Longitude(deg)": 36.82121169817909,
        "Mean Anomaly(deg)": 57.97783847836731,
        "RAAN(deg)": 150.00552971652246,
        "Satellite Name": "Starlink Shell 3 1878",
        "Satellite Number": 1878,
        "Semi-Major Axis(m)": 6938478.169268562,
        "Time(s)": 530
    },
    {
        "Altitude(m)": 573183.3336150161,
        "Argument of Periapsis(deg)": -0.021413520741763333,
        "Eccentricity": 0.0,
        "Inclination(deg)": 97.0,
        "Latitude(deg)": 57.991022875987376,
        "Longitude(deg)": 36.51460855104915,
        "Mean Anomaly(deg)": 58.60331467607236,
        "RAAN(deg)": 150.0056340507965,
        "Satellite Name": "Starlink Shell 3 1878",
        "Satellite Number": 1878,
        "Semi-Major Axis(m)": 6938478.169268562,
        "Time(s)": 540
    },
    {
        "Altitude(m)": 573314.6723112115,
        "Argument of Periapsis(deg)": -0.021810067422166356,
        "Eccentricity": 0.0,
        "Inclination(deg)": 97.0,
        "Latitude(deg)": 58.59857269487988,
        "Longitude(deg)": 36.19888684282771,
        "Mean Anomaly(deg)": 59.228790873777406,
        "RAAN(deg)": 150.0057383850705,
        "Satellite Name": "Starlink Shell 3 1878",
        "Satellite Number": 1878,
        "Semi-Major Axis(m)": 6938478.169268562,
        "Time(s)": 550
    },
    {
        "Altitude(m)": 573444.7290550084,
        "Argument of Periapsis(deg)": -0.022206614102569383,
        "Eccentricity": 0.0,
        "Inclination(deg)": 97.0,
        "Latitude(deg)": 59.205453028208154,
        "Longitude(deg)": 35.87351221729193,
        "Mean Anomaly(deg)": 59.85426707148245,
        "RAAN(deg)": 150.0058427193445,
        "Satellite Name": "Starlink Shell 3 1878",
        "Satellite Number": 1878,
        "Semi-Major Axis(m)": 6938478.169268562,
        "Time(s)": 560
    }
]